{
 "type": "FeatureCollection",
 "features": [
  {
   "type": "Feature",
   "properties": {
    "fid": 13,
    "area_ha": 30.3,
    "lon": -38.81989,
    "lat": -3.65391,
    "ndvi_before": 0.45,
    "ndvi_after": 0.063,
    "ndbi_before": 0.11,
    "ndbi_after": 0.154,
    "candidate_parcels": [
     "cand_6"
    ],
    "status": "INFERRED from Sentinel-2 change detection; confirm visually",
    "site": "Pecem data center (Omnia / \"TikTok\"), inferred",
    "evidence": "Sentinel-2 change Jul-Dec 2025 vs Jul-Oct 2026; building slabs visible; NDVI series shows disturbance from 2025-12/2026-01 with no 2026 rainy-season recovery",
    "located_in": "ZPE Setor II, CIPP (Plano Diretor 2022), Caucaia CE",
    "lawsuit": "MPF/DPU ACP 0080626-66.2026.4.05.8100 (release 2026-09-10)",
    "area_note": "30.3 ha is a lower bound: only pixels vegetated in Jul-Dec 2025 are counted"
   },
   "geometry": {
    "type": "Polygon",
    "coordinates": [
     [
      [
       -38.82521499648578,
       -3.651700556378955
      ],
      [
       -38.81837129935003,
       -3.6516991943227954
      ],
      [
       -38.81837128116876,
       -3.6517896633167455
      ],
      [
       -38.81810113525523,
       -3.651789608476891
      ],
      [
       -38.81810109883725,
       -3.651970546461516
      ],
      [
       -38.81801105018229,
       -3.6519705281625434
      ],
      [
       -38.81801099552487,
       -3.6522419351367477
      ],
      [
       -38.817920946843316,
       -3.6522419168273537
      ],
      [
       -38.81792092861425,
       -3.652332385817937
      ],
      [
       -38.81783087992414,
       -3.652332367499031
      ],
      [
       -38.817830825207174,
       -3.6526037744683175
      ],
      [
       -38.817740776490474,
       -3.65260375613899
      ],
      [
       -38.817740758241555,
       -3.6526942251279313
      ],
      [
       -38.817650709516286,
       -3.6526942067890893
      ],
      [
       -38.8176506912579,
       -3.6527846757773945
      ],
      [
       -38.8174705937907,
       -3.6527846390716245
      ],
      [
       -38.81747057551383,
       -3.652875108058834
      ],
      [
       -38.81738052677189,
       -3.652875089691906
      ],
      [
       -38.817380490198744,
       -3.6530560276648654
      ],
      [
       -38.81729044143923,
       -3.653056009287966
      ],
      [
       -38.81729036825139,
       -3.6534178852298713
      ],
      [
       -38.817200319456276,
       -3.6534178668420876
      ],
      [
       -38.817200282841576,
       -3.6535988048110317
      ],
      [
       -38.817110234028874,
       -3.653598786413272
      ],
      [
       -38.81711021571182,
       -3.6536892553970133
      ],
      [
       -38.81702016689056,
       -3.6536892369897385
      ],
      [
       -38.81702014856403,
       -3.6537797059728394
      ],
      [
       -38.8169300997342,
       -3.653779687556045
      ],
      [
       -38.816929953033394,
       -3.654503439410633
      ],
      [
       -38.81683990413186,
       -3.654503420981119
      ],
      [
       -38.81683977568151,
       -3.655136703841094
      ],
      [
       -38.81674972671728,
       -3.6551366853993135
      ],
      [
       -38.8167496349082,
       -3.6555890302915297
      ],
      [
       -38.81665958589932,
       -3.655589011838395
      ],
      [
       -38.81665947565918,
       -3.65613182570028
      ],
      [
       -38.8167495247222,
       -3.6561318441561625
      ],
      [
       -38.81674950635626,
       -3.6562223131329614
      ],
      [
       -38.81692960450174,
       -3.656222350018441
      ],
      [
       -38.81692958615339,
       -3.656312818995971
      ],
      [
       -38.817379831570186,
       -3.6563129110532766
      ],
      [
       -38.81737981326652,
       -3.65640338003291
      ],
      [
       -38.81774000964427,
       -3.6564034535173664
      ],
      [
       -38.817739991376236,
       -3.6564939224986395
      ],
      [
       -38.817830040480835,
       -3.656493940847539
      ],
      [
       -38.81782998570111,
       -3.6567653477916275
      ],
      [
       -38.818100133098866,
       -3.6567654027880145
      ],
      [
       -38.81810015133215,
       -3.656674933805471
      ],
      [
       -38.81819020045663,
       -3.6566749521190087
      ],
      [
       -38.818190218680435,
       -3.6565844831358265
      ],
      [
       -38.81864046426446,
       -3.656584574565225
      ],
      [
       -38.81864048244269,
       -3.6564941055795925
      ],
      [
       -38.81873053155182,
       -3.656494123837816
      ],
      [
       -38.818730567888856,
       -3.6563131858650975
      ],
      [
       -38.81900071516484,
       -3.6563132405826444
      ],
      [
       -38.81900066073983,
       -3.65658464754552
      ],
      [
       -38.81972105371225,
       -3.656584793070846
      ],
      [
       -38.81972107178217,
       -3.6564943240797936
      ],
      [
       -38.81990117001172,
       -3.6564943603695466
      ],
      [
       -38.819901188063135,
       -3.6564038913774115
      ],
      [
       -38.81999123716957,
       -3.656403909508235
      ],
      [
       -38.819991255211505,
       -3.6563134405154676
      ],
      [
       -38.82017135340766,
       -3.6563134767490144
      ],
      [
       -38.82017138945408,
       -3.6561325387611334
      ],
      [
       -38.820261438534786,
       -3.656132556863408
      ],
      [
       -38.82026147456137,
       -3.655951618873898
      ],
      [
       -38.82035152362447,
       -3.655951636966208
      ],
      [
       -38.820351541628064,
       -3.6558611679707314
      ],
      [
       -38.820711737848846,
       -3.6558612402475137
      ],
      [
       -38.8207117558159,
       -3.6557707712500593
      ],
      [
       -38.820801804863194,
       -3.6557707892961417
      ],
      [
       -38.82080182282077,
       -3.6556803202980586
      ],
      [
       -38.82125206801882,
       -3.655680410390246
      ],
      [
       -38.82125208593084,
       -3.6555899413897426
      ],
      [
       -38.821522233027956,
       -3.655589995334928
      ],
      [
       -38.821522250912444,
       -3.6554995263329046
      ],
      [
       -38.821702348961374,
       -3.655499562250143
      ],
      [
       -38.82170236682738,
       -3.655409093247045
      ],
      [
       -38.82179241584349,
       -3.6554091111916205
      ],
      [
       -38.821792451556114,
       -3.6552281731839886
      ],
      [
       -38.82188250055462,
       -3.655228191118609
      ],
      [
       -38.82188253624743,
       -3.6550472531093554
      ],
      [
       -38.82197258522834,
       -3.655047271034023
      ],
      [
       -38.82197260306505,
       -3.6549568020286753
      ],
      [
       -38.82206265203738,
       -3.654956819943834
      ],
      [
       -38.82206266986462,
       -3.6548663509378616
      ],
      [
       -38.82215271882838,
       -3.6548663688435115
      ],
      [
       -38.82215273664616,
       -3.6547758998369106
      ],
      [
       -38.82224278560134,
       -3.654775917733052
      ],
      [
       -38.82224280340965,
       -3.6546854487258247
      ],
      [
       -38.822332852356254,
       -3.6546854666124604
      ],
      [
       -38.82233288795351,
       -3.6545045285965725
      ],
      [
       -38.822422936882504,
       -3.6545045464732544
      ],
      [
       -38.82242295467145,
       -3.6544140774645943
      ],
      [
       -38.82251300359187,
       -3.6544140953317696
      ],
      [
       -38.82251309248484,
       -3.6539617502835067
      ],
      [
       -38.82260314136061,
       -3.653961768139404
      ],
      [
       -38.82260315912885,
       -3.653871299128761
      ],
      [
       -38.82269320799604,
       -3.6538713169751538
      ],
      [
       -38.82269327902852,
       -3.6535094409289814
      ],
      [
       -38.8226032301974,
       -3.653509423084359
      ],
      [
       -38.822603372313246,
       -3.652785670986798
      ],
      [
       -38.822513323554716,
       -3.6527856531366605
      ],
      [
       -38.82251343017709,
       -3.6522428390584825
      ],
      [
       -38.82350396595022,
       -3.6522430348825785
      ],
      [
       -38.82350398361991,
       -3.652152565864047
      ],
      [
       -38.824134324531116,
       -3.652152689905698
      ],
      [
       -38.82413430692454,
       -3.652243158927309
      ],
      [
       -38.82512484278477,
       -3.652243352958081
      ],
      [
       -38.82512486029218,
       -3.6521528839316506
      ],
      [
       -38.82521490900035,
       -3.6521529015160326
      ],
      [
       -38.82521499648578,
       -3.651700556378955
      ]
     ]
    ]
   }
  }
 ]
}