{
 "type": "FeatureCollection",
 "features": [
  {
   "type": "Feature",
   "properties": {
    "fid": 13,
    "area_ha": 30.3,
    "lon": -38.81989,
    "lat": -3.65391,
    "ndvi_before": 0.45,
    "ndvi_after": 0.063,
    "ndbi_before": 0.11,
    "ndbi_after": 0.154,
    "candidate_parcels": [
     "cand_6"
    ],
    "status": "INFERRED from Sentinel-2 change detection; confirm visually"
   },
   "geometry": {
    "type": "Polygon",
    "coordinates": [
     [
      [
       -38.82521499648578,
       -3.651700556378955
      ],
      [
       -38.81837129935003,
       -3.6516991943227954
      ],
      [
       -38.81837128116876,
       -3.6517896633167455
      ],
      [
       -38.81810113525523,
       -3.651789608476891
      ],
      [
       -38.81810109883725,
       -3.651970546461516
      ],
      [
       -38.81801105018229,
       -3.6519705281625434
      ],
      [
       -38.81801099552487,
       -3.6522419351367477
      ],
      [
       -38.817920946843316,
       -3.6522419168273537
      ],
      [
       -38.81792092861425,
       -3.652332385817937
      ],
      [
       -38.81783087992414,
       -3.652332367499031
      ],
      [
       -38.817830825207174,
       -3.6526037744683175
      ],
      [
       -38.817740776490474,
       -3.65260375613899
      ],
      [
       -38.817740758241555,
       -3.6526942251279313
      ],
      [
       -38.817650709516286,
       -3.6526942067890893
      ],
      [
       -38.8176506912579,
       -3.6527846757773945
      ],
      [
       -38.8174705937907,
       -3.6527846390716245
      ],
      [
       -38.81747057551383,
       -3.652875108058834
      ],
      [
       -38.81738052677189,
       -3.652875089691906
      ],
      [
       -38.817380490198744,
       -3.6530560276648654
      ],
      [
       -38.81729044143923,
       -3.653056009287966
      ],
      [
       -38.81729036825139,
       -3.6534178852298713
      ],
      [
       -38.817200319456276,
       -3.6534178668420876
      ],
      [
       -38.817200282841576,
       -3.6535988048110317
      ],
      [
       -38.817110234028874,
       -3.653598786413272
      ],
      [
       -38.81711021571182,
       -3.6536892553970133
      ],
      [
       -38.81702016689056,
       -3.6536892369897385
      ],
      [
       -38.81702014856403,
       -3.6537797059728394
      ],
      [
       -38.8169300997342,
       -3.653779687556045
      ],
      [
       -38.816929953033394,
       -3.654503439410633
      ],
      [
       -38.81683990413186,
       -3.654503420981119
      ],
      [
       -38.81683977568151,
       -3.655136703841094
      ],
      [
       -38.81674972671728,
       -3.6551366853993135
      ],
      [
       -38.8167496349082,
       -3.6555890302915297
      ],
      [
       -38.81665958589932,
       -3.655589011838395
      ],
      [
       -38.81665947565918,
       -3.65613182570028
      ],
      [
       -38.8167495247222,
       -3.6561318441561625
      ],
      [
       -38.81674950635626,
       -3.6562223131329614
      ],
      [
       -38.81692960450174,
       -3.656222350018441
      ],
      [
       -38.81692958615339,
       -3.656312818995971
      ],
      [
       -38.817379831570186,
       -3.6563129110532766
      ],
      [
       -38.81737981326652,
       -3.65640338003291
      ],
      [
       -38.81774000964427,
       -3.6564034535173664
      ],
      [
       -38.817739991376236,
       -3.6564939224986395
      ],
      [
       -38.817830040480835,
       -3.656493940847539
      ],
      [
       -38.81782998570111,
       -3.6567653477916275
      ],
      [
       -38.818100133098866,
       -3.6567654027880145
      ],
      [
       -38.81810015133215,
       -3.656674933805471
      ],
      [
       -38.81819020045663,
       -3.6566749521190087
      ],
      [
       -38.818190218680435,
       -3.6565844831358265
      ],
      [
       -38.81864046426446,
       -3.656584574565225
      ],
      [
       -38.81864048244269,
       -3.6564941055795925
      ],
      [
       -38.81873053155182,
       -3.656494123837816
      ],
      [
       -38.818730567888856,
       -3.6563131858650975
      ],
      [
       -38.81900071516484,
       -3.6563132405826444
      ],
      [
       -38.81900066073983,
       -3.65658464754552
      ],
      [
       -38.81972105371225,
       -3.656584793070846
      ],
      [
       -38.81972107178217,
       -3.6564943240797936
      ],
      [
       -38.81990117001172,
       -3.6564943603695466
      ],
      [
       -38.819901188063135,
       -3.6564038913774115
      ],
      [
       -38.81999123716957,
       -3.656403909508235
      ],
      [
       -38.819991255211505,
       -3.6563134405154676
      ],
      [
       -38.82017135340766,
       -3.6563134767490144
      ],
      [
       -38.82017138945408,
       -3.6561325387611334
      ],
      [
       -38.820261438534786,
       -3.656132556863408
      ],
      [
       -38.82026147456137,
       -3.655951618873898
      ],
      [
       -38.82035152362447,
       -3.655951636966208
      ],
      [
       -38.820351541628064,
       -3.6558611679707314
      ],
      [
       -38.820711737848846,
       -3.6558612402475137
      ],
      [
       -38.8207117558159,
       -3.6557707712500593
      ],
      [
       -38.820801804863194,
       -3.6557707892961417
      ],
      [
       -38.82080182282077,
       -3.6556803202980586
      ],
      [
       -38.82125206801882,
       -3.655680410390246
      ],
      [
       -38.82125208593084,
       -3.6555899413897426
      ],
      [
       -38.821522233027956,
       -3.655589995334928
      ],
      [
       -38.821522250912444,
       -3.6554995263329046
      ],
      [
       -38.821702348961374,
       -3.655499562250143
      ],
      [
       -38.82170236682738,
       -3.655409093247045
      ],
      [
       -38.82179241584349,
       -3.6554091111916205
      ],
      [
       -38.821792451556114,
       -3.6552281731839886
      ],
      [
       -38.82188250055462,
       -3.655228191118609
      ],
      [
       -38.82188253624743,
       -3.6550472531093554
      ],
      [
       -38.82197258522834,
       -3.655047271034023
      ],
      [
       -38.82197260306505,
       -3.6549568020286753
      ],
      [
       -38.82206265203738,
       -3.654956819943834
      ],
      [
       -38.82206266986462,
       -3.6548663509378616
      ],
      [
       -38.82215271882838,
       -3.6548663688435115
      ],
      [
       -38.82215273664616,
       -3.6547758998369106
      ],
      [
       -38.82224278560134,
       -3.654775917733052
      ],
      [
       -38.82224280340965,
       -3.6546854487258247
      ],
      [
       -38.822332852356254,
       -3.6546854666124604
      ],
      [
       -38.82233288795351,
       -3.6545045285965725
      ],
      [
       -38.822422936882504,
       -3.6545045464732544
      ],
      [
       -38.82242295467145,
       -3.6544140774645943
      ],
      [
       -38.82251300359187,
       -3.6544140953317696
      ],
      [
       -38.82251309248484,
       -3.6539617502835067
      ],
      [
       -38.82260314136061,
       -3.653961768139404
      ],
      [
       -38.82260315912885,
       -3.653871299128761
      ],
      [
       -38.82269320799604,
       -3.6538713169751538
      ],
      [
       -38.82269327902852,
       -3.6535094409289814
      ],
      [
       -38.8226032301974,
       -3.653509423084359
      ],
      [
       -38.822603372313246,
       -3.652785670986798
      ],
      [
       -38.822513323554716,
       -3.6527856531366605
      ],
      [
       -38.82251343017709,
       -3.6522428390584825
      ],
      [
       -38.82350396595022,
       -3.6522430348825785
      ],
      [
       -38.82350398361991,
       -3.652152565864047
      ],
      [
       -38.824134324531116,
       -3.652152689905698
      ],
      [
       -38.82413430692454,
       -3.652243158927309
      ],
      [
       -38.82512484278477,
       -3.652243352958081
      ],
      [
       -38.82512486029218,
       -3.6521528839316506
      ],
      [
       -38.82521490900035,
       -3.6521529015160326
      ],
      [
       -38.82521499648578,
       -3.651700556378955
      ]
     ]
    ]
   }
  },
  {
   "type": "Feature",
   "properties": {
    "fid": 2,
    "area_ha": 18.22,
    "lon": -38.79844,
    "lat": -3.57001,
    "ndvi_before": 0.386,
    "ndvi_after": 0.084,
    "ndbi_before": 0.115,
    "ndbi_after": 0.123,
    "candidate_parcels": [
     "cand_1"
    ],
    "status": "INFERRED from Sentinel-2 change detection; confirm visually"
   },
   "geometry": {
    "type": "Polygon",
    "coordinates": [
     [
      [
       -38.80119041168893,
       -3.5671070366418025
      ],
      [
       -38.80065017044246,
       -3.5671069192952234
      ],
      [
       -38.800650150950744,
       -3.567197388364066
      ],
      [
       -38.80056011073593,
       -3.5671973687748446
      ],
      [
       -38.80056009123492,
       -3.5672878378430104
      ],
      [
       -38.800109890124325,
       -3.567287739761729
      ],
      [
       -38.800109870578794,
       -3.5673782088272232
      ],
      [
       -38.799929790120444,
       -3.5673781695317897
      ],
      [
       -38.7999297705568,
       -3.567468638596106
      ],
      [
       -38.7996596498466,
       -3.5674685795851095
      ],
      [
       -38.79965966943665,
       -3.5673781105222933
      ],
      [
       -38.79929950853194,
       -3.56737803171912
      ],
      [
       -38.79929948890666,
       -3.567468500779932
      ],
      [
       -38.79866920728107,
       -3.567468362530285
      ],
      [
       -38.79866916790577,
       -3.5676493006443475
      ],
      [
       -38.798489087410616,
       -3.5676492610628183
      ],
      [
       -38.7984890677046,
       -3.5677397301185754
      ],
      [
       -38.79839902744897,
       -3.5677397103140374
      ],
      [
       -38.79839900773365,
       -3.5678301793691136
      ],
      [
       -38.798308967469715,
       -3.5678301595552244
      ],
      [
       -38.798308947745085,
       -3.5679206286096186
      ],
      [
       -38.79821890747285,
       -3.567920608786378
      ],
      [
       -38.79821888773891,
       -3.56801107784009
      ],
      [
       -38.79812884745837,
       -3.568011058007498
      ],
      [
       -38.798128827715125,
       -3.5681015270605276
      ],
      [
       -38.79803878742629,
       -3.5681015072185835
      ],
      [
       -38.79803876767373,
       -3.56819197627093
      ],
      [
       -38.79794872737659,
       -3.568191956419634
      ],
      [
       -38.797948707614715,
       -3.5682824254712973
      ],
      [
       -38.79785866730928,
       -3.5682824056106486
      ],
      [
       -38.7978586475381,
       -3.568372874661628
      ],
      [
       -38.79776860722435,
       -3.568372854791626
      ],
      [
       -38.797768587443855,
       -3.568463323841923
      ],
      [
       -38.79767854712182,
       -3.568463303962567
      ],
      [
       -38.79767852733201,
       -3.56855377301218
      ],
      [
       -38.79758848700166,
       -3.5685537531234695
      ],
      [
       -38.797588467202544,
       -3.5686442221723986
      ],
      [
       -38.797498426863896,
       -3.568644202274333
      ],
      [
       -38.797498407055464,
       -3.568734671322579
      ],
      [
       -38.79740836670851,
       -3.568734651415158
      ],
      [
       -38.79740830725377,
       -3.569006058557308
      ],
      [
       -38.7973182668809,
       -3.569006038639518
      ],
      [
       -38.797318247052836,
       -3.5690965076860386
      ],
      [
       -38.797228206671655,
       -3.5690964877588933
      ],
      [
       -38.79722816699639,
       -3.5692774258503865
      ],
      [
       -38.7971381265981,
       -3.569277405913377
      ],
      [
       -38.7971381067509,
       -3.5693678749583495
      ],
      [
       -38.79704806634432,
       -3.5693678550119823
      ],
      [
       -38.797048046487795,
       -3.56945832405627
      ],
      [
       -38.796958006072906,
       -3.5694583041005443
      ],
      [
       -38.79695798620707,
       -3.5695487731441458
      ],
      [
       -38.79686794578387,
       -3.5695487531790633
      ],
      [
       -38.79686792590872,
       -3.5696392222219786
      ],
      [
       -38.79677788547723,
       -3.569639202247537
      ],
      [
       -38.79677784570779,
       -3.569820140331818
      ],
      [
       -38.796687805259175,
       -3.569820120347508
      ],
      [
       -38.79668776547008,
       -3.570001058430061
      ],
      [
       -38.79659772500436,
       -3.570001038435884
      ],
      [
       -38.79659770510024,
       -3.5700915074763837
      ],
      [
       -38.79650766462622,
       -3.5700914874728453
      ],
      [
       -38.79650764471278,
       -3.5701819565126596
      ],
      [
       -38.79641760423045,
       -3.5701819364997593
      ],
      [
       -38.796417564384434,
       -3.5703628745778357
      ],
      [
       -38.79632752388499,
       -3.570362854555066
      ],
      [
       -38.796327503952405,
       -3.570453323593328
      ],
      [
       -38.796237463444655,
       -3.5704533035611954
      ],
      [
       -38.796237443502754,
       -3.5705437725987696
      ],
      [
       -38.796147402986705,
       -3.570543752557274
      ],
      [
       -38.796147383035475,
       -3.5706342215941618
      ],
      [
       -38.796057342511126,
       -3.570634201543303
      ],
      [
       -38.796057302589524,
       -3.570815139615523
      ],
      [
       -38.79596726204805,
       -3.570815119554791
      ],
      [
       -38.79596724207768,
       -3.5709055885901244
      ],
      [
       -38.79587720152791,
       -3.5709055685200273
      ],
      [
       -38.79587718154821,
       -3.5709960375546728
      ],
      [
       -38.79578714099013,
       -3.570996017475211
      ],
      [
       -38.79578710101157,
       -3.5711769555429442
      ],
      [
       -38.795697060436375,
       -3.571176935453608
      ],
      [
       -38.795697020438155,
       -3.5713578735196085
      ],
      [
       -38.79560697984585,
       -3.571357853420395
      ],
      [
       -38.79560695983716,
       -3.571448322452617
      ],
      [
       -38.79551691923655,
       -3.5714483023440367
      ],
      [
       -38.795516899218526,
       -3.5715387713755695
      ],
      [
       -38.79542685860961,
       -3.5715387512576218
      ],
      [
       -38.79542683858227,
       -3.5716292202884654
      ],
      [
       -38.79533679796504,
       -3.5716292001611505
      ],
      [
       -38.79533675789121,
       -3.57181013822128
      ],
      [
       -38.79524671725686,
       -3.5718101180840853
      ],
      [
       -38.79524669721035,
       -3.571900587113371
      ],
      [
       -38.79515665656771,
       -3.5719005669668085
      ],
      [
       -38.79515661645554,
       -3.572081505023821
      ],
      [
       -38.79497653513652,
       -3.572081464702076
      ],
      [
       -38.79497649498705,
       -3.5722624027563263
      ],
      [
       -38.794886454310664,
       -3.572262382581143
      ],
      [
       -38.79488641414151,
       -3.5724433206336554
      ],
      [
       -38.794796373448015,
       -3.572443300448588
      ],
      [
       -38.794796353353846,
       -3.572533769474064
      ],
      [
       -38.794706312652046,
       -3.572533749279625
      ],
      [
       -38.79470627244454,
       -3.5727146873290163
      ],
      [
       -38.79461623172562,
       -3.572714667124693
      ],
      [
       -38.79461619149844,
       -3.572895605172344
      ],
      [
       -38.794526150762394,
       -3.572895584958135
      ],
      [
       -38.79452613063922,
       -3.57298605398118
      ],
      [
       -38.79443608989486,
       -3.572986033757598
      ],
      [
       -38.79443606976235,
       -3.5730765027799505
      ],
      [
       -38.794346029009695,
       -3.5730764825469947
      ],
      [
       -38.7943459887255,
       -3.5732574205901364
      ],
      [
       -38.79425594795572,
       -3.5732574003472934
      ],
      [
       -38.79425590765183,
       -3.5734383383886947
      ],
      [
       -38.79416586686493,
       -3.5734383181359624
      ],
      [
       -38.794165786215714,
       -3.5738001942145634
      ],
      [
       -38.79461599033177,
       -3.5738002953998844
      ],
      [
       -38.794616010450746,
       -3.573709826377934
      ],
      [
       -38.79479609208311,
       -3.5737098667890024
      ],
      [
       -38.79479611218394,
       -3.5736193977658477
      ],
      [
       -38.79488615299207,
       -3.5736194179575764
      ],
      [
       -38.794886173083555,
       -3.573528948933731
      ],
      [
       -38.795156295484574,
       -3.5735290094542114
      ],
      [
       -38.795156355676596,
       -3.5732576023769944
      ],
      [
       -38.795336437226915,
       -3.5732576426766056
      ],
      [
       -38.79533645727227,
       -3.573167173649487
      ],
      [
       -38.795426498039376,
       -3.573167193785491
      ],
      [
       -38.7954265381109,
       -3.5729862557296954
      ],
      [
       -38.795696660362374,
       -3.5729863160814785
      ],
      [
       -38.79569668037092,
       -3.5728958470517806
      ],
      [
       -38.79587676185681,
       -3.572895887240982
      ],
      [
       -38.79587678184721,
       -3.5728054182100855
      ],
      [
       -38.79596682258211,
       -3.572805438290886
      ],
      [
       -38.795966842563175,
       -3.5727149692593017
      ],
      [
       -38.79614692401686,
       -3.572715009393306
      ],
      [
       -38.796146943979785,
       -3.5726245403605246
      ],
      [
       -38.79632702541787,
       -3.572624580458074
      ],
      [
       -38.79632704536265,
       -3.572534111424096
      ],
      [
       -38.79650712678513,
       -3.5725341514851903
      ],
      [
       -38.796507166637916,
       -3.572353213414665
      ],
      [
       -38.797047410811736,
       -3.572353333379243
      ],
      [
       -38.79704743068446,
       -3.5722628643406664
      ],
      [
       -38.79713747137305,
       -3.5722628843032513
      ],
      [
       -38.79713749123646,
       -3.5721724152639895
      ],
      [
       -38.79722753191674,
       -3.57217243521721
      ],
      [
       -38.79722759147747,
       -3.5719010280968324
      ],
      [
       -38.79695746951749,
       -3.57190096821516
      ],
      [
       -38.79695748939649,
       -3.5718104991761974
      ],
      [
       -38.796777408109996,
       -3.57181045921181
      ],
      [
       -38.796777487691486,
       -3.5714485830582365
      ],
      [
       -38.796867528299224,
       -3.571448603042829
      ],
      [
       -38.796867548184515,
       -3.5713581340034817
      ],
      [
       -38.79695758878395,
       -3.5713581539787103
      ],
      [
       -38.796957628535374,
       -3.5711772158984654
      ],
      [
       -38.7971377097005,
       -3.5711772558203276
      ],
      [
       -38.797137729557825,
       -3.571086786778923
      ],
      [
       -38.79722777013234,
       -3.5710868067260644
      ],
      [
       -38.79722778998035,
       -3.5709963376839755
      ],
      [
       -38.79740787111325,
       -3.5709963775506783
      ],
      [
       -38.797407910772506,
       -3.5708154394639404
      ],
      [
       -38.79758799187218,
       -3.5708154792931994
      ],
      [
       -38.79758801168342,
       -3.5707250102485517
      ],
      [
       -38.797858133310285,
       -3.5707250699245137
      ],
      [
       -38.797858311350815,
       -3.569910848501008
      ],
      [
       -38.7979483518148,
       -3.569910868370744
      ],
      [
       -38.7979483913562,
       -3.569729930273659
      ],
      [
       -38.79803843180308,
       -3.5697299501335333
      ],
      [
       -38.7980384515642,
       -3.5696394810842187
      ],
      [
       -38.798128492002775,
       -3.569639500934736
      ],
      [
       -38.7981285315059,
       -3.569458562834563
      ],
      [
       -38.798218571927364,
       -3.5694585826752205
      ],
      [
       -38.798218591669354,
       -3.5693681136243627
      ],
      [
       -38.79830863208251,
       -3.5693681334556655
      ],
      [
       -38.7983086518152,
       -3.5692776644041246
      ],
      [
       -38.79839869222004,
       -3.5692776842260723
      ],
      [
       -38.79839871194341,
       -3.5691872151738497
      ],
      [
       -38.798758873532584,
       -3.56918729437112
      ],
      [
       -38.79875885384445,
       -3.569277763425354
      ],
      [
       -38.799028975068026,
       -3.5692778227318804
      ],
      [
       -38.79902899472974,
       -3.569187353676139
      ],
      [
       -38.79911903512979,
       -3.5691873734267774
      ],
      [
       -38.799119054782196,
       -3.5690969043703555
      ],
      [
       -38.79920909517394,
       -3.5690969241116415
      ],
      [
       -38.79920921302498,
       -3.568554109766355
      ],
      [
       -38.799119172686076,
       -3.5685540900280786
      ],
      [
       -38.79911923163125,
       -3.5682826828545324
      ],
      [
       -38.79920927194374,
       -3.568282702591303
      ],
      [
       -38.799209291582315,
       -3.568192233532597
      ],
      [
       -38.79929933188649,
       -3.568192253260018
      ],
      [
       -38.79929935151577,
       -3.568101784200632
      ],
      [
       -38.799569472404876,
       -3.568101843328305
      ],
      [
       -38.79956949200724,
       -3.568011374267237
      ],
      [
       -38.799749572584865,
       -3.5680114136404453
      ],
      [
       -38.79974959216911,
       -3.5679209445781983
      ],
      [
       -38.79983963244987,
       -3.56792096425103
      ],
      [
       -38.79983969117318,
       -3.567649557061719
      ],
      [
       -38.800199852195554,
       -3.5676496356585803
      ],
      [
       -38.800199813117615,
       -3.5678305737889615
      ],
      [
       -38.80046993394245,
       -3.5678306326467077
      ],
      [
       -38.80046999247937,
       -3.5675592254463786
      ],
      [
       -38.800830153480476,
       -3.5675593037935363
      ],
      [
       -38.80082995869222,
       -3.568463994474976
      ],
      [
       -38.800739918353145,
       -3.5684639748964795
      ],
      [
       -38.80073989886277,
       -3.5685544439631456
      ],
      [
       -38.80064985851539,
       -3.5685544243753036
      ],
      [
       -38.80064981951555,
       -3.5687353625071037
      ],
      [
       -38.80055977915104,
       -3.568735342909416
      ],
      [
       -38.80055968159869,
       -3.5691876882333067
      ],
      [
       -38.800289560376044,
       -3.5691876293796705
      ],
      [
       -38.80028954083766,
       -3.5692780984424175
      ],
      [
       -38.80010946000743,
       -3.569278059161409
      ],
      [
       -38.80010942089392,
       -3.569458997284372
      ],
      [
       -38.79992934003045,
       -3.5694589579659612
      ],
      [
       -38.79992932045533,
       -3.569549427026177
      ],
      [
       -38.79983928001553,
       -3.5695494073531946
      ],
      [
       -38.799839260431106,
       -3.5696398764127317
      ],
      [
       -38.799749219983,
       -3.569639856730398
      ],
      [
       -38.79974920038926,
       -3.5697303257892568
      ],
      [
       -38.799659159932844,
       -3.569730306097571
      ],
      [
       -38.79965912072624,
       -3.5699112442137517
      ],
      [
       -38.7995690802527,
       -3.5699112245122135
      ],
      [
       -38.79956906063984,
       -3.570001693569535
      ],
      [
       -38.799479020157996,
       -3.570001673858643
      ],
      [
       -38.79947892204213,
       -3.570454019140076
      ],
      [
       -38.79938888151673,
       -3.570453999417827
      ],
      [
       -38.799388861883244,
       -3.570544468473076
      ],
      [
       -38.799208780816315,
       -3.570544429001013
      ],
      [
       -38.7992087611647,
       -3.570634898055082
      ],
      [
       -38.799118720623184,
       -3.570634878305269
      ],
      [
       -38.799118700962254,
       -3.5707253473586578
      ],
      [
       -38.79902866041242,
       -3.5707253275994875
      ],
      [
       -38.79902864074218,
       -3.5708157966521954
      ],
      [
       -38.79893860018403,
       -3.570815776883669
      ],
      [
       -38.798938560824425,
       -3.570996714987547
      ],
      [
       -38.79884852024915,
       -3.5709966952091605
      ],
      [
       -38.79884848086991,
       -3.5711776333113203
      ],
      [
       -38.798668399685624,
       -3.5711775937259715
      ],
      [
       -38.79866837997762,
       -3.571268062775778
      ],
      [
       -38.798578339377414,
       -3.571268042969317
      ],
      [
       -38.79857828022395,
       -3.5715394501161586
      ],
      [
       -38.79893844273356,
       -3.571539529294898
      ],
      [
       -38.798938383681346,
       -3.5718109364461648
      ],
      [
       -38.79920850564815,
       -3.5718109957417434
      ],
      [
       -38.79920852530628,
       -3.5717205266899943
      ],
      [
       -38.79929856595407,
       -3.5717205464369712
      ],
      [
       -38.79929858560288,
       -3.5716300773845426
      ],
      [
       -38.79947866688233,
       -3.5716301168509235
      ],
      [
       -38.79947868651301,
       -3.5715396477973136
      ],
      [
       -38.799568727144674,
       -3.5715396675167184
      ],
      [
       -38.799568746766035,
       -3.5714491984624295
      ],
      [
       -38.79983886863758,
       -3.5714492575660044
      ],
      [
       -38.799838888231996,
       -3.571358788510036
      ],
      [
       -38.79992892884803,
       -3.5713588081930148
      ],
      [
       -38.79992894843314,
       -3.5712683391363678
      ],
      [
       -38.80001898904086,
       -3.5712683588099905
      ],
      [
       -38.800019086914844,
       -3.5708160135215827
      ],
      [
       -38.80019916804364,
       -3.570816052837269
      ],
      [
       -38.80019920715449,
       -3.5706351147186597
      ],
      [
       -38.80028924770201,
       -3.5706351343622234
      ],
      [
       -38.800289267247884,
       -3.5705446653021515
      ],
      [
       -38.80037930778709,
       -3.570544684936362
      ],
      [
       -38.8003793468597,
       -3.570363746814685
      ],
      [
       -38.80055942790437,
       -3.5703637860545503
      ],
      [
       -38.800559447422295,
       -3.570273316992448
      ],
      [
       -38.80064948793657,
       -3.5702733365986026
      ],
      [
       -38.8006495074452,
       -3.570182867535824
      ],
      [
       -38.80073954795115,
       -3.570182887132627
      ],
      [
       -38.800739567450464,
       -3.570092418069172
      ],
      [
       -38.8008296079481,
       -3.570092437656624
      ],
      [
       -38.80082962743812,
       -3.5700019685924933
      ],
      [
       -38.80100970841726,
       -3.570002007739844
      ],
      [
       -38.801009747360546,
       -3.5698210696090587
      ],
      [
       -38.801099787833245,
       -3.569821089168461
      ],
      [
       -38.80109980729534,
       -3.5697306201023036
      ],
      [
       -38.80118984775972,
       -3.5697306396523576
      ],
      [
       -38.80118986721251,
       -3.569640170585525
      ],
      [
       -38.80127990766857,
       -3.5696401901262296
      ],
      [
       -38.80127994655503,
       -3.5694592519910366
      ],
      [
       -38.801369986993976,
       -3.569459271521897
      ],
      [
       -38.80137008415739,
       -3.5690069261783104
      ],
      [
       -38.80155016494868,
       -3.56900696520852
      ],
      [
       -38.80155020377535,
       -3.568826027067853
      ],
      [
       -38.80164024415412,
       -3.5688260465686916
      ],
      [
       -38.80164026355791,
       -3.5687355774975944
      ],
      [
       -38.801820344299315,
       -3.5687356164717303
      ],
      [
       -38.80182036368499,
       -3.568645147399465
      ],
      [
       -38.80191040404763,
       -3.5686451668727646
      ],
      [
       -38.80191044279987,
       -3.5684642287267088
      ],
      [
       -38.8020004831454,
       -3.5684642481901694
      ],
      [
       -38.80200061870104,
       -3.5678309646698967
      ],
      [
       -38.80281098127817,
       -3.5678311394117466
      ],
      [
       -38.802811019845414,
       -3.5676502012526083
      ],
      [
       -38.803261221206334,
       -3.5676502980168383
      ],
      [
       -38.80326129815882,
       -3.567288421686584
      ],
      [
       -38.80281109697399,
       -3.5672883249321927
      ],
      [
       -38.80281107769259,
       -3.567378794012564
      ],
      [
       -38.80245091671836,
       -3.5673787164478523
      ],
      [
       -38.80245089740124,
       -3.567469185526074
      ],
      [
       -38.80236085715011,
       -3.567469166112286
      ],
      [
       -38.8023608378237,
       -3.5675596351898355
      ],
      [
       -38.80146043525152,
       -3.567559440560468
      ],
      [
       -38.80146051290639,
       -3.567197564268993
      ],
      [
       -38.80119039225004,
       -3.5671975057136276
      ],
      [
       -38.80119041168893,
       -3.5671070366418025
      ]
     ]
    ]
   }
  }
 ]
}